{
  "links" : {
    "next" : "https://api.nasa.gov/neo/rest/v1/feed?start_date=2011-05-16&end_date=2011-05-16&detailed=true&api_key=t0TVs3DtDT2H8Oy2Zy8m2eVrNsAVKAexjcZXUckd",
    "prev" : "https://api.nasa.gov/neo/rest/v1/feed?start_date=2011-05-14&end_date=2011-05-14&detailed=true&api_key=t0TVs3DtDT2H8Oy2Zy8m2eVrNsAVKAexjcZXUckd",
    "self" : "https://api.nasa.gov/neo/rest/v1/feed?start_date=2011-05-15&end_date=2011-05-15&detailed=true&api_key=t0TVs3DtDT2H8Oy2Zy8m2eVrNsAVKAexjcZXUckd"
  },
  "element_count" : 5,
  "near_earth_objects" : {
    "2011-05-15" : [ {
      "links" : {
        "self" : "https://api.nasa.gov/neo/rest/v1/neo/3585467?api_key=t0TVs3DtDT2H8Oy2Zy8m2eVrNsAVKAexjcZXUckd"
      },
      "neo_reference_id" : "3585467",
      "name" : "(2011 UC292)",
      "nasa_jpl_url" : "http://ssd.jpl.nasa.gov/sbdb.cgi?sstr=3585467",
      "absolute_magnitude_h" : 22.6,
      "estimated_diameter" : {
        "kilometers" : {
          "estimated_diameter_min" : 0.0802703167,
          "estimated_diameter_max" : 0.1794898848
        },
        "meters" : {
          "estimated_diameter_min" : 80.2703167283,
          "estimated_diameter_max" : 179.4898847799
        },
        "miles" : {
          "estimated_diameter_min" : 0.049877647,
          "estimated_diameter_max" : 0.1115298092
        },
        "feet" : {
          "estimated_diameter_min" : 263.3540659348,
          "estimated_diameter_max" : 588.8775935812
        }
      },
      "is_potentially_hazardous_asteroid" : false,
      "close_approach_data" : [ {
        "close_approach_date" : "2011-05-15",
        "epoch_date_close_approach" : 1305442800000,
        "relative_velocity" : {
          "kilometers_per_second" : "8.0260687898",
          "kilometers_per_hour" : "28893.8476434256",
          "miles_per_hour" : "17953.5132759941"
        },
        "miss_distance" : {
          "astronomical" : "0.2144825801",
          "lunar" : "83.4337234497",
          "kilometers" : "32086136",
          "miles" : "19937402"
        },
        "orbiting_body" : "Earth"
      } ],
      "orbital_data" : {
        "orbit_id" : "5",
        "orbit_determination_date" : "2017-04-06 08:52:07",
        "orbit_uncertainty" : "7",
        "minimum_orbit_intersection" : ".0161531",
        "jupiter_tisserand_invariant" : "5.705",
        "epoch_osculation" : "2458000.5",
        "eccentricity" : ".2607394785260002",
        "semi_major_axis" : "1.078090713497173",
        "inclination" : "1.69537349244136",
        "ascending_node_longitude" : "187.1815098842731",
        "orbital_period" : "408.8663643729415",
        "perihelion_distance" : ".7969899030561963",
        "perihelion_argument" : "52.42118279224657",
        "aphelion_distance" : "1.359191523938149",
        "perihelion_time" : "2458154.949470921020",
        "mean_anomaly" : "224.0098223368387",
        "mean_motion" : ".8804832859071557",
        "equinox" : "J2000"
      }
    }, {
      "links" : {
        "self" : "https://api.nasa.gov/neo/rest/v1/neo/3601666?api_key=t0TVs3DtDT2H8Oy2Zy8m2eVrNsAVKAexjcZXUckd"
      },
      "neo_reference_id" : "3601666",
      "name" : "(2012 FM35)",
      "nasa_jpl_url" : "http://ssd.jpl.nasa.gov/sbdb.cgi?sstr=3601666",
      "absolute_magnitude_h" : 27.3,
      "estimated_diameter" : {
        "kilometers" : {
          "estimated_diameter_min" : 0.0092162655,
          "estimated_diameter_max" : 0.0206081961
        },
        "meters" : {
          "estimated_diameter_min" : 9.216265485,
          "estimated_diameter_max" : 20.6081961232
        },
        "miles" : {
          "estimated_diameter_min" : 0.0057267201,
          "estimated_diameter_max" : 0.0128053354
        },
        "feet" : {
          "estimated_diameter_min" : 30.2370924539,
          "estimated_diameter_max" : 67.6121941689
        }
      },
      "is_potentially_hazardous_asteroid" : false,
      "close_approach_data" : [ {
        "close_approach_date" : "2011-05-15",
        "epoch_date_close_approach" : 1305442800000,
        "relative_velocity" : {
          "kilometers_per_second" : "2.7635359411",
          "kilometers_per_hour" : "9948.7293880458",
          "miles_per_hour" : "6181.7535466999"
        },
        "miss_distance" : {
          "astronomical" : "0.1068842476",
          "lunar" : "41.5779724121",
          "kilometers" : "15989656",
          "miles" : "9935512"
        },
        "orbiting_body" : "Earth"
      } ],
      "orbital_data" : {
        "orbit_id" : "13",
        "orbit_determination_date" : "2017-04-06 08:50:22",
        "orbit_uncertainty" : "5",
        "minimum_orbit_intersection" : ".00873629",
        "jupiter_tisserand_invariant" : "6.019",
        "epoch_osculation" : "2458000.5",
        "eccentricity" : ".1184493447688707",
        "semi_major_axis" : "1.011649614689502",
        "inclination" : "2.121644411280465",
        "ascending_node_longitude" : "11.17114738831883",
        "orbital_period" : "371.6581044457803",
        "perihelion_distance" : ".8918203806938496",
        "perihelion_argument" : "77.33720113796846",
        "aphelion_distance" : "1.131478848685153",
        "perihelion_time" : "2458154.412227299343",
        "mean_anomaly" : "210.915663710902",
        "mean_motion" : ".9686321802045325",
        "equinox" : "J2000"
      }
    } ]
  }
}